ORBCOMM FM35            
1 25985U 99065F   26064.35949948  .00001417  00000+0  51214-3 0  9995
2 25985  45.0398 299.5944 0003405 275.6516  84.3944 14.37862988372365
ORBCOMM FM34            
1 25986U 99065G   26064.67747795  .00001163  00000+0  42946-3 0  9997
2 25986  45.0393 298.5965 0003105 219.8981 140.1639 14.37776198372523
ORBCOMM FM38            
1 33060U 08031A   26064.61430631  .00002940  00000+0  38681-3 0  9999
2 33060  48.4388 148.1255 0003799  89.9606 270.1746 14.82712936953525
ORBCOMM FM41            
1 33061U 08031B   26064.44311620  .00002732  00000+0  36525-3 0  9991
2 33061  48.4424 157.6654 0003091  67.7475  28.7544 14.82246459952971
ORBCOMM FM29            
1 33062U 08031C   26064.47186748  .00003031  00000+0  40075-3 0  9994
2 33062  48.4376 164.9602 0004721  69.3432  29.4947 14.82420987952890
ORBCOMM FM39            
1 33063U 08031D   26064.61837271  .00002830  00000+0  39041-3 0  9992
2 33063  48.4387 191.5526 0005838  36.6952 323.4362 14.80802837952522
ORBCOMM FM37            
1 33064U 08031E   26064.71448106  .00002718  00000+0  37430-3 0  9994
2 33064  48.4380 179.2121 0004355  58.0996  85.2333 14.80997061952793
ORBCOMM FM40            
1 33065U 08031F   26064.46011034  .00003345  00000+0  42706-3 0  9992
2 33065  48.4400 159.7553 0005155  76.1773  23.7971 14.83632657952933
VESSELSAT 1             
1 37840U 11058C   26064.82874554  .00000414  00000+0  80793-4 0  9997
2 37840  19.9627 310.6152 0013661 184.4653 175.5631 14.11419569743311
ORBCOMM FM109           
1 40086U 14040A   26064.74641757  .00000925  00000+0  23252-3 0  9998
2 40086  47.0019 220.5009 0001209 126.5476 233.5521 14.58716149619241
ORBCOMM FM107           
1 40087U 14040B   26064.62428786  .00001103  00000+0  26979-3 0  9999
2 40087  47.0035 221.9311 0000548   2.6194 357.4695 14.58800025619309
ORBCOMM FM106           
1 40088U 14040C   26064.25592935  .00001642  00000+0  29989-3 0  9999
2 40088  47.0613  24.5925 0016454 203.5867 156.4271 14.70290502621882
ORBCOMM FM111           
1 40089U 14040D   26064.67632148  .00004700  00000+0  52197-3 0  9992
2 40089  46.9996 196.3195 0028184   4.3061 355.8075 14.88318688629158
ORBCOMM FM104           
1 40090U 14040E   26063.59962263  .00000747  00000+0  20138-3 0  9995
2 40090  47.0042 263.5495 0016452 314.1700  45.7833 14.57157822618591
ORBCOMM FM103           
1 40091U 14040F   26064.81727381  .00001012  00000+0  25098-3 0  9998
2 40091  47.0038 221.7373 0001118  24.0757 336.0181 14.58702734602291
ORBCOMM FM114           
1 41179U 15081A   26064.21640101  .00000859  00000+0  21854-3 0  9994
2 41179  47.0042 133.5177 0001234  85.6971 274.4056 14.58721704542574
ORBCOMM FM119           
1 41180U 15081B   26064.28401660  .00001028  00000+0  25456-3 0  9999
2 41180  47.0011  42.5564 0000959 221.4495 138.6318 14.58665127543833
